[{"OBJECT_ID":"1999-014B","OBJECT_NAME":"BLOCK DM-SL R/B","NORAD_CAT_ID":"25662","OBJECT_TYPE":"ROCKET BODY","PERIOD":"641.992","INCLINATION":"0.6642","APOGEE":"35972.294","PERIGEE":"574.803","ECCENTRICITY":"0.7179528","MEAN_MOTION":"2.24301859","TLE_LINE1":"1 25662U 99014B   16239.15632736 -.00000077  00000-0  40498-4 0  9992","TLE_LINE2":"2 25662   0.6642 178.8405 7179528 279.8127 128.7736  2.24301859142712","LAUNCH_DATE":"1999-03-28","LAUNCH_SITE":"SEA LAUNCH","OWNER":"SEA LAUNCH DEMO","ORBIT_TYPE":"Highly Elliptical Orbit","OPERATIONAL_STATUS":"N/A, derelict rocket body","satInfo":{"lng":177.26995355597816,"lat":-0.44613817156108937,"elevation":-14.470276821754348,"azimuth":137.73004644402184,"range":26231.089272793193,"height":19021.602601061746,"velocity":3.900626074177711},"x":6,"y":150,"dx":-3.8961989983450724,"dy":0.18578787864087656},{"OBJECT_ID":"1999-042A","OBJECT_NAME":"TELKOM 1","NORAD_CAT_ID":"25880","OBJECT_TYPE":"PAYLOAD","PERIOD":"1436.087","INCLINATION":"0.0344","APOGEE":"35788.916","PERIGEE":"35783.924","ECCENTRICITY":"5.92e-05","MEAN_MOTION":"1.00272415","TLE_LINE1":"1 25880U 99042A   16238.89956262 -.00000372 +00000-0 +00000-0 0  9997","TLE_LINE2":"2 25880 000.0344 238.8519 0000592 317.1256 210.4353 01.00272415062461","LAUNCH_DATE":"1999-08-12","LAUNCH_SITE":"FRENCH GUIANA","OWNER":"INDONESIA","ORBIT_TYPE":"Geosynchronous","OPERATIONAL_STATUS":"Operational","satInfo":{"lng":49.167888492251585,"lat":-1.3062162610950203,"elevation":-9.845669560670352,"azimuth":265.83211150774844,"range":42793.9933090674,"height":35796.53103623181,"velocity":3.074400440755426},"x":202,"y":-184,"dx":2.010180619526939,"dy":2.3261796893179705},{"OBJECT_ID":"1999-046A","OBJECT_NAME":"ABS 7 (KOREASAT 3)","NORAD_CAT_ID":"25894","OBJECT_TYPE":"PAYLOAD","PERIOD":"1436.155","INCLINATION":"0.036","APOGEE":"35793.802","PERIGEE":"35781.700","ECCENTRICITY":"0.0001435","MEAN_MOTION":"1.00267666","TLE_LINE1":"1 25894U 99046A   16238.38141640  .00000000  00000-0  10000-3 0  9997","TLE_LINE2":"2 25894   0.0360 258.3095 0001435 238.3359  90.8363  1.00267666 61232","LAUNCH_DATE":"1999-09-04","LAUNCH_SITE":"FRENCH GUIANA","OWNER":"SOUTH KOREA","ORBIT_TYPE":"Geosynchronous","OPERATIONAL_STATUS":"Operational","satInfo":{"lng":57.599501591422886,"lat":-1.8147948698065073,"elevation":-10.339219037983904,"azimuth":257.40049840857716,"range":42855.96318774219,"height":35803.08495019592,"velocity":3.0742710178974013},"x":226,"y":-151,"dx":1.6472993659510946,"dy":2.5956785414263157},{"OBJECT_ID":"1999-056B","OBJECT_NAME":"BLOCK DM-SL R/B","NORAD_CAT_ID":"25938","OBJECT_TYPE":"ROCKET BODY","PERIOD":"678.723","INCLINATION":"0.5477","APOGEE":"35711.986","PERIGEE":"2698.216","ECCENTRICITY":"0.6452227","MEAN_MOTION":"2.12162942","TLE_LINE1":"1 25938U 99056B   16238.20033332 -.00000197 +00000-0 +00000-0 0  9990","TLE_LINE2":"2 25938 000.5477 038.7653 6452227 314.4463 354.9799 02.12162942130769","LAUNCH_DATE":"1999-10-10","LAUNCH_SITE":"SEA LAUNCH","OWNER":"SEA LAUNCH DEMO","ORBIT_TYPE":"Highly Elliptical Orbit","OPERATIONAL_STATUS":"N/A, derelict rocket body","satInfo":{"lng":-108.10214377350957,"lat":-0.6277224153624916,"elevation":-15.456322052096366,"azimuth":63.10214377350957,"range":24836.145355056215,"height":17561.21586899946,"velocity":4.209463006901886},"x":-125,"y":43,"dx":-1.3079306437888585,"dy":-4.001111875155896},{"OBJECT_ID":"1999-059A","OBJECT_NAME":"TELSTAR 12 (ORION 2)","NORAD_CAT_ID":"25949","OBJECT_TYPE":"PAYLOAD","PERIOD":"1436.097","INCLINATION":"0.3162","APOGEE":"35797.304","PERIGEE":"35775.918","ECCENTRICITY":"0.0002536","MEAN_MOTION":"1.00271732","TLE_LINE1":"1 25949U 99059A   16239.57688127 -.00000091  00000-0  00000+0 0  9996","TLE_LINE2":"2 25949   0.3162  89.5421 0002536  67.5440 276.6211  1.00271732 61616","LAUNCH_DATE":"1999-10-19","LAUNCH_SITE":"FRENCH GUIANA","OWNER":"UNITED STATES OF AMERICA","ORBIT_TYPE":"Geosynchronous","OPERATIONAL_STATUS":"Operational","satInfo":{"lng":-105.15620196513649,"lat":-1.9946459930248663,"elevation":-10.51598664129745,"azimuth":60.15620196513646,"range":42865.97783050387,"height":35793.39137342131,"velocity":3.0740977334720143},"x":-258,"y":74,"dx":-0.8037272308020488,"dy":-2.9671702703763136},{"OBJECT_ID":"1999-060A","OBJECT_NAME":"AMC-4 (GE-4)","NORAD_CAT_ID":"25954","OBJECT_TYPE":"PAYLOAD","PERIOD":"1436.198","INCLINATION":"0.0249","APOGEE":"35804.818","PERIGEE":"35772.349","ECCENTRICITY":"0.000385","MEAN_MOTION":"1.00264697","TLE_LINE1":"1 25954U 99060A   16238.44151374  .00000000  00000-0  10000-3 0  9992","TLE_LINE2":"2 25954   0.0249  26.0876 0003850  59.5157 340.4149  1.00264697 61455","LAUNCH_DATE":"1999-11-13","LAUNCH_SITE":"FRENCH GUIANA","OWNER":"SOCIÉTÉ EUROPÉENNE DES SATELLITES","ORBIT_TYPE":"Geosynchronous","OPERATIONAL_STATUS":"Operational","satInfo":{"lng":-85.01477113478411,"lat":0.5313778309648176,"elevation":-8.053120933042836,"azimuth":40.014771134784084,"range":42589.51704611443,"height":35793.20002789792,"velocity":3.074763610684973},"x":-267,"y":-25,"dx":0.26719362455119217,"dy":-3.063132192477447},{"OBJECT_ID":"2000-007A","OBJECT_NAME":"HISPASAT 1C","NORAD_CAT_ID":"26071","OBJECT_TYPE":"PAYLOAD","PERIOD":"1436.099","INCLINATION":"0.0334","APOGEE":"35796.187","PERIGEE":"35777.103","ECCENTRICITY":"0.0002263","MEAN_MOTION":"1.00271611","TLE_LINE1":"1 26071U 00007A   16238.65024102 -.00000239  00000-0  00000+0 0  9997","TLE_LINE2":"2 26071   0.0334  21.8718 0002263 158.8085 303.8955  1.00271611 60719","LAUNCH_DATE":"2000-02-03","LAUNCH_SITE":"AIR FORCE EASTERN TEST RANGE","OWNER":"SPAIN","ORBIT_TYPE":"Geosynchronous","OPERATIONAL_STATUS":"Operational","satInfo":{"lng":-100.30546862925256,"lat":0.31677479688114685,"elevation":-8.260394991079657,"azimuth":55.30546862925253,"range":42625.74558911755,"height":35806.0249208446,"velocity":3.0736438785671787},"x":-264,"y":50,"dx":-0.5498629696263491,"dy":-3.0240597558393554},{"OBJECT_ID":"2000-011A","OBJECT_NAME":"GARUDA 1","NORAD_CAT_ID":"26089","OBJECT_TYPE":"PAYLOAD","PERIOD":"1441.429","INCLINATION":"1.2856","APOGEE":"35912.374","PERIGEE":"35869.437","ECCENTRICITY":"0.0005079","MEAN_MOTION":"0.99900847","TLE_LINE1":"1 26089U 00011A   16238.86923847 -.00000105 +00000-0 +00000-0 0  9991","TLE_LINE2":"2 26089 001.2856 134.4562 0005079 050.4465 185.1813 00.99900847005861","LAUNCH_DATE":"2000-02-12","LAUNCH_SITE":"TYURATAM MISSILE AND SPACE COMPLEX","OWNER":"INDONESIA","ORBIT_TYPE":"Geosynchronous","OPERATIONAL_STATUS":"Nonoperational","satInfo":{"lng":30.08087075513726,"lat":1.996388771741607,"elevation":-6.601521433996331,"azimuth":284.91912924486275,"range":42506.8953751771,"height":35872.54469641195,"velocity":3.072106547750541},"x":134,"y":-245,"dx":2.65835158482264,"dy":1.539806965889786},{"OBJECT_ID":"2000-012A","OBJECT_NAME":"SUPERBIRD 4","NORAD_CAT_ID":"26095","OBJECT_TYPE":"PAYLOAD","PERIOD":"1436.128","INCLINATION":"0.0517","APOGEE":"35792.239","PERIGEE":"35782.195","ECCENTRICITY":"0.0001191","MEAN_MOTION":"1.00269571","TLE_LINE1":"1 26095U 00012A   16239.36228272 -.00000122  00000-0  00000+0 0  9993","TLE_LINE2":"2 26095   0.0517 267.5965 0001191 290.6437  69.1949  1.00269571 60511","LAUNCH_DATE":"2000-02-18","LAUNCH_SITE":"FRENCH GUIANA","OWNER":"JAPAN","ORBIT_TYPE":"Geosynchronous","OPERATIONAL_STATUS":"Operational","satInfo":{"lng":-56.241862526741556,"lat":-0.06745288972940479,"elevation":-8.633922715964115,"azimuth":11.24186252674153,"range":42677.28975098525,"height":35815.54897512199,"velocity":3.073484024102735},"x":-223,"y":-157,"dx":1.7078991661263963,"dy":-2.555266030134534},{"OBJECT_ID":"2000-028A","OBJECT_NAME":"EUTE 36A (EUTE W4)","NORAD_CAT_ID":"26369","OBJECT_TYPE":"PAYLOAD","PERIOD":"1436.086","INCLINATION":"0.4028","APOGEE":"35804.435","PERIGEE":"35768.351","ECCENTRICITY":"0.0004279","MEAN_MOTION":"1.00272511","TLE_LINE1":"1 26369U 00028A   16239.01477921 -.00000244  00000-0  00000+0 0  9998","TLE_LINE2":"2 26369   0.4028  81.3753 0004279  88.5176 258.6168  1.00272511 59566","LAUNCH_DATE":"2000-05-24","LAUNCH_SITE":"AIR FORCE EASTERN TEST RANGE","OWNER":"EUROPEAN TELECOMMUNICATIONS SATELLITE ORGANIZATION (EUTELSAT)","ORBIT_TYPE":"Geosynchronous","OPERATIONAL_STATUS":"Operational","satInfo":{"lng":61.98622810941308,"lat":2.1618206061286966,"elevation":-6.460327637380628,"azimuth":253.01377189058692,"range":42384.680582714645,"height":35767.3665719863,"velocity":3.076058809685959},"x":236,"y":-132,"dx":1.4447749254654898,"dy":2.7156515268702623},{"OBJECT_ID":"2000-043B","OBJECT_NAME":"BLOCK DM-SL R/B","NORAD_CAT_ID":"26452","OBJECT_TYPE":"ROCKET BODY","PERIOD":"664.364","INCLINATION":"1.9735","APOGEE":"35779.183","PERIGEE":"1906.779","ECCENTRICITY":"0.6715088","MEAN_MOTION":"2.16748597","TLE_LINE1":"1 26452U 00043B   16238.85285457 -.00000098 +00000-0 +00000-0 0  9998","TLE_LINE2":"2 26452 001.9735 353.8141 6715088 103.4601 017.9886 02.16748597126974","LAUNCH_DATE":"2000-07-28","LAUNCH_SITE":"SEA LAUNCH","OWNER":"SEA LAUNCH DEMO","ORBIT_TYPE":"Highly Elliptical Orbit","OPERATIONAL_STATUS":"N/A, derelict rocket body","satInfo":{"lng":104.29211401515627,"lat":-0.2251210139649705,"elevation":-8.938212180315288,"azimuth":210.70788598484373,"range":41963.464033695534,"height":35076.061904501665,"velocity":1.851256822745521},"x":254,"y":68,"dx":-0.4570116976606857,"dy":1.793959902551654}]